{
    "links": {
        "self": "http://www.neowsapp.com/rest/v1/neo/3389467?api_key=iIulBulltgU6a56xZRHN4H3l9WmuAYTsLGpBGhQ2"
    },
    "id": "3389467",
    "neo_reference_id": "3389467",
    "name": "(2007 UE6)",
    "designation": "2007 UE6",
    "nasa_jpl_url": "http://ssd.jpl.nasa.gov/sbdb.cgi?sstr=3389467",
    "absolute_magnitude_h": 24.0,
    "estimated_diameter": {
        "kilometers": {
            "estimated_diameter_min": 0.0421264611,
            "estimated_diameter_max": 0.0941976306
        },
        "meters": {
            "estimated_diameter_min": 42.1264610556,
            "estimated_diameter_max": 94.1976305719
        },
        "miles": {
            "estimated_diameter_min": 0.0261761612,
            "estimated_diameter_max": 0.0585316759
        },
        "feet": {
            "estimated_diameter_min": 138.2101784897,
            "estimated_diameter_max": 309.0473542854
        }
    },
    "is_potentially_hazardous_asteroid": false,
    "close_approach_data": [
        {
            "close_approach_date": "2007-10-30",
            "close_approach_date_full": "2007-Oct-30 21:01",
            "epoch_date_close_approach": 1193778060000,
            "relative_velocity": {
                "kilometers_per_second": "17.1475125261",
                "kilometers_per_hour": "61731.045093938",
                "miles_per_hour": "38357.2707696194"
            },
            "miss_distance": {
                "astronomical": "0.0450606522",
                "lunar": "17.5285937058",
                "kilometers": "6740977.589930814",
                "miles": "4188649.2441366732"
            },
            "orbiting_body": "Earth"
        }
    ],
    "orbital_data": {
        "orbit_id": "6",
        "orbit_determination_date": "2017-04-06 09:05:32",
        "first_observation_date": "2007-10-20",
        "last_observation_date": "2007-10-21",
        "data_arc_in_days": 1,
        "observations_used": 16,
        "orbit_uncertainty": "9",
        "minimum_orbit_intersection": ".0231902",
        "jupiter_tisserand_invariant": "4.255",
        "epoch_osculation": "2454394.5",
        "eccentricity": ".5709409549520446",
        "semi_major_axis": "1.546017262333611",
        "inclination": "6.297238500271304",
        "ascending_node_longitude": "197.8458189055202",
        "orbital_period": "702.1338889931561",
        "perihelion_distance": ".6633326902045137",
        "perihelion_argument": "286.2452765933671",
        "aphelion_distance": "2.428701834462709",
        "perihelion_time": "2454455.190286982428",
        "mean_anomaly": "328.8827107533517",
        "mean_motion": ".5127227237475059",
        "equinox": "J2000",
        "orbit_class": {
            "orbit_class_type": "APO",
            "orbit_class_description": "Near-Earth asteroid orbits which cross the Earth’s orbit similar to that of 1862 Apollo",
            "orbit_class_range": "a (semi-major axis) > 1.0 AU; q (perihelion) < 1.017 AU"
        }
    },
    "is_sentry_object": false
}